#aV2024 12 10  0  0  0.00000000     288 DD+AD WGS84 FIT  NGA
## 2344 172800.00000000   300.00000000 60654 0.0000000000000
+   31     2  3  4  5  6  7  8  9 10 11 12 13 14 15 16 17 18
+         19 20 21 22 23 24 25 26 27 28 29 30 31 32  0  0  0
+          0  0  0  0  0  0  0  0  0  0  0  0  0  0  0  0  0
+          0  0  0  0  0  0  0  0  0  0  0  0  0  0  0  0  0
+          0  0  0  0  0  0  0  0  0  0  0  0  0  0  0  0  0
++         2  2  2  2  2  2  2  2  2  2  2  2  2  2  2  2  2
++         2  2  2  2  2  2  2  2  2  2  2  2  2  2  0  0  0
++         0  0  0  0  0  0  0  0  0  0  0  0  0  0  0  0  0
++         0  0  0  0  0  0  0  0  0  0  0  0  0  0  0  0  0
++         0  0  0  0  0  0  0  0  0  0  0  0  0  0  0  0  0
%c cc cc ccc ccc cccc cccc cccc cccc ccccc ccccc ccccc ccccc
%c cc cc ccc ccc cccc cccc cccc cccc ccccc ccccc ccccc ccccc
%f  0.0000000  0.000000000  0.00000000000  0.000000000000000
%f  0.0000000  0.000000000  0.00000000000  0.000000000000000
%i    0    0    0    0      0      0      0      0         0
%i    0    0    0    0      0      0      0      0         0
/*      NGA, ST. LOUIS,MO.                                  
/*   EPHEMERIS COMPUTED FROM 2 DAYS OF DATA                 
/*   EPOCHA v9 SMOOTHER                                     
/*   G2296 IERS2010 SATIGS SATAPC                           
*  2024 12 10  0 15  0.00000000
P  2  14112.239247  -7898.133677  21475.012751   -295.665134                    
V  2   3364.148591  26027.587524   7895.045116      0.088158                    
P  3  23246.458599 -12624.078748   1392.518294    620.799730                    
V  3   -650.886993   2777.445525  32347.842555      0.091139                    
P  4  18283.668121  -4160.162857 -18854.731264    493.280621                    
V  4  19803.772946  13450.007212  16072.639217      0.062257                    
P  5 -21642.341143   1722.197901 -15520.828798   -195.533450                    
V  5  15220.904693 -12030.780436 -22755.750136     -0.011485                    
P  6  -5774.947900 -24264.212489  -8884.442372    -32.175606                    
V  6   1891.268916 -11382.127321  29724.647808     -0.290114                    
P  7   7335.271000 -22662.603798 -10730.790938    -16.186823                    
V  7   3438.225507  14552.989673 -27497.920985      0.014381                    
P  8  24388.398682   4345.030228  10049.175696    434.652741                    
V  8  10298.549729   8012.377681 -27660.708474      0.091941                    
P  9  10050.696926 -11833.908192 -21645.495834    480.275505                    
V  9  23997.302170  12948.970912   4013.980415      0.163569                    
P 10    875.814038  15912.538954  21409.164259   -228.121837                    
V 10 -23273.422620  13007.527406  -9137.795846     -0.152225                    
P 11 -12361.803484 -14450.429803 -18526.627784   -752.432277                    
V 11   2125.904098 -23517.842578  16827.810186     -0.005348                    
P 12 -24532.571191   8871.613565   4572.154159   -557.375312                    
V 12   4229.572796  -5303.945775  31088.171192     -0.023715                    
P 13 -22544.992537 -13563.436626   4243.026939    689.354232                    
V 13  -3129.062995  -5192.737289 -31256.681806      0.014584                    
P 14   3216.059246 -17902.358160  19321.812117    556.964999                    
V 14  22135.434500 -10772.342043 -13931.077806      0.077175                    
P 15 -24477.212881  -1198.577968   9898.226953    237.688062                    
V 15 -11422.541281  -7542.336832 -27561.408161      0.045659                    
P 16  19257.790397   4800.888558 -18215.162044   -107.277384                    
V 16 -19483.116491  10829.411658 -17652.556205      0.096246                    
P 17  -5862.054233 -18701.052989  18245.451677    525.673082                    
V 17  19682.228883  10796.468296  17991.585331     -0.157726                    
P 18  -6227.959095  24055.101717  -9024.490883   -660.457970                    
V 18  -2324.717878 -11564.926977 -29340.096278      0.003171                    
P 19 -15482.318460 -19340.178958  10004.912314    572.199737                    
V 19  11643.274743   5628.885091  28073.611798      0.042539                    
P 20 -14010.738687  -7565.559611 -21154.691238    368.026170                    
V 20  19939.060934 -18356.496355  -6751.110096     -0.003187                    
P 21  15487.473544    160.281434  21997.931535     95.354895                    
V 21   3247.056288  26791.222649  -1441.673022     -0.010186                    
P 22  -4426.937460 -14909.756129  21939.935246    -85.304716                    
V 22  24292.158576 -11587.608683  -2723.029593     -0.025233                    
P 23 -13082.901293  18792.313729  13295.760982    380.307604                    
V 23 -15242.019675   7461.809900 -25843.439163      0.077516                    
P 24 -14809.411948   5756.830697  20775.915548   -474.702370                    
V 24  -3979.261581 -27344.140438   5035.608827      0.029387                    
P 25 -18368.331820  17664.205316  -7332.898094    498.266029                    
V 25  -9238.329816   2060.841003  29798.365912     -0.003995                    
P 26  10388.764173  12169.342939 -21390.942627     -3.081545                    
V 26 -21789.822536  15697.064571  -1276.612930     -0.139018                    
P 27  23454.780874  12965.016522   -244.886973    -34.308380                    
V 27  -1144.478861   2215.915236 -31437.898881      0.002938                    
P 28   5847.998565  25025.123335  -6721.218621   -503.645348                    
V 28  -2284.490742   8628.667073  30210.159883     -0.109002                    
P 29 -11004.608710  10651.603874 -21753.536779   -557.234246                    
V 29 -22787.879838 -15362.843705   3893.337292      0.030627                    
P 30   -550.174078 -26407.311186    125.763296   -264.667386                    
V 30   3866.309963    -53.086288 -31348.503605      0.080616                    
P 31  11035.891459  18324.902847 -15749.732911   -220.273873                    
V 31  -2403.158720  19705.262415  21942.913466      0.007134                    
P 32  10746.945471  18542.081405  16046.463790   -561.514265                    
V 32 -18257.012080  -8031.824522  21611.361180      0.059527                    
EOF
